ONEWEB-0258             
1 48976U 21060K   25150.91564775 -.00000028  00000+0 -10712-3 0  9995
2 48976  87.9023 304.9909 0001887  97.6592 262.4753 13.16594624189290
ONEWEB-0259             
1 48977U 21060L   25150.90930778 -.00000040  00000+0 -13703-3 0  9992
2 48977  87.9025 304.9763 0001896 102.4084 257.7259 13.16594758189322
ONEWEB-0260             
1 48978U 21060M   25150.90060148 -.00000043  00000+0 -14616-3 0  9995
2 48978  87.9023 305.0055 0001301  90.3894 269.7386 13.16595520189302
ONEWEB-0261             
1 48979U 21060N   25150.94651268  .00000027  00000+0  37391-4 0  9995
2 48979  87.9022 304.9976 0001586 111.4927 248.6374 13.16592788189361
ONEWEB-0262             
1 48980U 21060P   25150.92671701 -.00000021  00000+0 -88040-4 0  9992
2 48980  87.9027 304.9606 0002079 105.2993 254.8368 13.16594058189320
ONEWEB-0263             
1 48981U 21060Q   25150.88237980  .00000097  00000+0  22074-3 0  9990
2 48981  87.9024 304.9955 0001827 111.6095 248.5231 13.16595920189282
ONEWEB-0264             
1 48982U 21060R   25150.91959171 -.00000062  00000+0 -19678-3 0  9998
2 48982  87.9022 304.9938 0001793 100.6928 259.4404 13.16592851189291
ONEWEB-0266             
1 48984U 21060T   25150.94096819  .00000058  00000+0  11902-3 0  9999
2 48984  87.9025 304.9619 0002030  96.5313 263.6049 13.16594852189282
